Store_Name,Address,Address_Line__2,City,State,Zip5,Zip4,County,ObjectId,geometry
Cartersville Farm & Art Market,2168 Cartersville Rd,NA,Cartersville,VA,23027,9704,CUMBERLAND,36,"c(-78.101746, 37.659569)"
Aan 786 Llc,3028 Scenic Hwy,NA,Mount Solon,VA,22843,2608,AUGUSTA,49,"c(-79.095848, 38.314754)"
Country Side Market,1285 North East Side Hwy,NA,Elkton,VA,22827,2725,ROCKINGHAM,930,"c(-78.618408, 38.422577)"
Speedway 4654,1600 Seminole Trl,NA,Charlottesville,VA,22901,1420,ALBEMARLE,1208,"c(-78.475555, 38.080601)"
Mini Mart,852 W Main St,Ste 108,Charlottesville,VA,22903,3494,CHARLOTTESVILLE,1641,"c(-78.493858, 38.031883)"
Dollar Tree 152,2020 Rio Hill Ctr,NA,Charlottesville,VA,22901,1150,ALBEMARLE,3636,"c(-78.471489, 38.088131)"
Food Lion 2189,11010 Kentucky Springs Rd,NA,Mineral,VA,23117,NA,LOUISA,3821,"c(-77.850929, 38.079636)"
Corner Market,11309 James River Rd,NA,Shipman,VA,22971,2308,NELSON,4954,"c(-78.851448, 37.724098)"
7-Eleven 39953H,2950 Spotswood Trl,NA,Rockingham,VA,22801,2216,HARRISONBURG,5160,"c(-78.833313, 38.412937)"
Food Lion 1186,585 Branchlands Blvd,NA,Charlottesville,VA,22901,1791,ALBEMARLE,5305,"c(-78.478973, 38.072906)"
Fas Mart 3516,1248 Crozet Ave,NA,Crozet,VA,22932,3131,ALBEMARLE,5999,"c(-78.700302, 38.070221)"
Reid Super Save Market,16660 Oak St,NA,Dillwyn,VA,23936,3312,BUCKINGHAM,6335,"c(-78.465225, 37.545345)"
Goochland Fairground Farmers Market,1889 Sandy Hook Rd,NA,Goochland,VA,23063,3106,GOOCHLAND,7136,"c(-77.888023, 37.697201)"
Dollar General 12579,554 S Main St,NA,Madison,VA,22727,3084,MADISON,7928,"c(-78.262329, 38.375626)"
CVS 8288,9026 Seminole Trl,NA,Ruckersville,VA,22968,3319,GREENE,9432,"c(-78.368355, 38.234962)"
CVS 1552,789 Cantrell Ave,NA,Harrisonburg,VA,22801,4366,HARRISONBURG,9436,"c(-78.857498, 38.440792)"
CVS 1553,901 W Broad St,NA,Waynesboro,VA,22980,4320,WAYNESBORO,9437,"c(-78.89093, 38.070187)"
7-Eleven Store 39754A,1157 Jefferson Hwy,NA,Staunton,VA,24401,6606,STAUNTON,9731,"c(-79.042953, 38.134415)"
CVS 1557,1302 Barterbrook Rd,NA,Staunton,VA,24401,5013,STAUNTON,10509,"c(-79.062195, 38.128529)"
CVS 1566,150 Madison Rd,NA,Culpeper,VA,22701,3405,CULPEPER,10763,"c(-78.000237, 38.4645)"
CVS 4237,1755 S High St,NA,Harrisonburg,VA,22801,1553,HARRISONBURG,10766,"c(-78.90097, 38.432854)"
CVS 6322,1310 Churchville Ave,NA,Staunton,VA,24401,2703,STAUNTON,10773,"c(-79.088722, 38.166855)"
CVS 7947,1151 Port Republic Rd,NA,Harrisonburg,VA,22801,3509,HARRISONBURG,10775,"c(-78.868454, 38.418125)"
Friendly City Food Co-op,150 E Wolfe St,NA,Harrisonburg,VA,22802,4116,HARRISONBURG,10801,"c(-78.866554, 38.451206)"
Stokesville Market,90 N River Rd,NA,Mount Solon,VA,22843,2416,AUGUSTA,10863,"c(-79.147392, 38.356049)"
Culpeper Renaissance Inc,127 W Davis St,NA,Culpeper,VA,22701,3017,CULPEPER,11620,"c(-77.996567, 38.473434)"
Buenavista Groceries,774 E Market St,NA,Harrisonburg,VA,22801,4235,HARRISONBURG,11854,"c(-78.853653, 38.447414)"
Nelson Food Market,40 Front St,NA,Lovingston,VA,22949,2346,NELSON,12285,"c(-78.874855, 37.753376)"
Jake's Convenience Inc.,2436 Churchville Ave,NA,Staunton,VA,24401,6271,STAUNTON,13131,"c(-79.115524, 38.197807)"
Ladd Convenience,4633 Stuarts Draft Hwy,NA,Waynesboro,VA,22980,7334,WAYNESBORO,13453,"c(-78.950211, 38.056984)"
Joe's Kwik Mart 8405,120 Berry Hill Rd,NA,Orange,VA,22960,1633,ORANGE,13686,"c(-78.111565, 38.239902)"
Speedway 4650,821 Richmond Ave,NA,Staunton,VA,24401,4956,STAUNTON,13693,"c(-79.051102, 38.141094)"
Save X,2309 W Beverley St,NA,Staunton,VA,24401,2904,STAUNTON,13841,"c(-79.104431, 38.154697)"
Kroger 239,1904 Emmet St N,NA,Charlottesville,VA,22901,2815,ALBEMARLE,14866,"c(-78.492554, 38.060581)"
Food Lion 1531,85 Callohill Dr,NA,Lovingston,VA,22949,9701,NELSON,14978,"c(-78.877434, 37.753792)"
Food Lion 1565,1021 Port Republic Rd,NA,Harrisonburg,VA,22801,3507,HARRISONBURG,15103,"c(-78.869957, 38.420273)"
Flowers Bakery 4652,2213 W Main St,NA,Waynesboro,VA,22980,1738,WAYNESBORO,15291,"c(-78.917152, 38.077606)"
Waynesboro Marathon,2900 W Main St,NA,Waynesboro,VA,22980,9556,WAYNESBORO,16479,"c(-78.929749, 38.083038)"
Whole Foods Market 10205,1797 Hydraulic Rd,NA,Charlottesville,VA,22901,2835,ALBEMARLE,16527,"c(-78.490173, 38.060059)"
REID SUPER SAVE MKT 3,600 Preston Ave,NA,Charlottesville,VA,22903,4538,CHARLOTTESVILLE,16956,"c(-78.485916, 38.035107)"
SAFEWAY  1538,309 Southgate Shopping Ctr,NA,Culpeper,VA,22701,3835,CULPEPER,16977,"c(-78.000931, 38.463009)"
BRYANT'S GROCERY & SUPPL,16 C G Woodson Rd,NA,New Canton,VA,23123,2001,BUCKINGHAM,16981,"c(-78.285255, 37.66003)"
Walmart Supercenter 5731,2533 Germanna Hwy,NA,Locust Grove,VA,22508,NA,ORANGE,17094,"c(-77.768738, 38.369755)"
Brown's,1218 Avon St,NA,Charlottesville,VA,22902,6304,CHARLOTTESVILLE,17233,"c(-78.482239, 38.019993)"
7-eleven 39845a,11473 Spotswood Trl,NA,McGaheysville,VA,22840,2348,ROCKINGHAM,17337,"c(-78.707085, 38.385326)"
Circle K 2723206,1099 Rio Rd E,NA,Charlottesville,VA,22901,1805,ALBEMARLE,17859,"c(-78.465683, 38.066177)"
Scottsville Farmers' Market,125 Fleet Street,NA,Scottsville,VA,24590,NA,ALBEMARLE,18055,"c(-78.49575, 37.797886)"
Stop Shop,1175 E Main St,NA,Waynesboro,VA,22980,5826,WAYNESBORO,18386,"c(-78.873383, 38.064346)"
Speedway 4641,1437 S Main St,NA,Harrisonburg,VA,22801,2910,HARRISONBURG,19333,"c(-78.882767, 38.432449)"
Speedway 4646,101 Lee Hwy,NA,Verona,VA,24482,2504,AUGUSTA,19335,"c(-79.018974, 38.193378)"
Speedway 4647,2601 W Main St,NA,Waynesboro,VA,22980,1615,WAYNESBORO,19338,"c(-78.923393, 38.079926)"
Speedway 4648,780 E Main St,NA,Waynesboro,VA,22980,5717,WAYNESBORO,19339,"c(-78.877525, 38.06583)"
Speedway 4652,1172 Richmond Rd,NA,Charlottesville,VA,22911,3516,ALBEMARLE,19340,"c(-78.45607, 38.033798)"
Speedway 4653,2235 Seminole Ln,NA,Charlottesville,VA,22901,8300,ALBEMARLE,19342,"c(-78.464127, 38.097363)"
Hilltop Produce And Seafood,78 Zion Park Ct,NA,Troy,VA,22974,2814,FLUVANNA,20651,"c(-78.213531, 37.966541)"
Food Lion 482,1102 WASHINGTON AVE,NA,AMHERST,VA,24521,NA,AMHERST,22645,"c(-79.048767, 37.582222)"
Walgreens 1270,1500 W Beverley St,NA,Staunton,VA,24401,3001,STAUNTON,22782,"c(-79.089119, 38.152573)"
El Tio Variedades Internacionales,259 Ridge Mcintire Rd,NA,Charlottesville,VA,22903,5043,CHARLOTTESVILLE,23229,"c(-78.48494, 38.031902)"
Tienda Hispana La Amistad,30 Commerce Dr,NA,Harrisonburg,VA,22802,4686,HARRISONBURG,23757,"c(-78.85778, 38.458279)"
Quik-e 011,100 N Main St,NA,Amherst,VA,24521,3010,AMHERST,25169,"c(-79.049469, 37.588219)"
Sandy Hook Store,2883 Sandy Hook Rd,NA,Sandy Hook,VA,23153,9996,GOOCHLAND,25628,"c(-77.912079, 37.751816)"
Bridgewater IGA,519 N Main St,NA,Bridgewater,VA,22812,1628,ROCKINGHAM,26143,"c(-78.967979, 38.389065)"
7-Eleven Inc F 34513A,11113 James Monroe Hwy,NA,Culpeper,VA,22701,8029,CULPEPER,27890,"c(-78.043106, 38.457314)"
Johnnys Quikstop,2172 Pendleton Rd,NA,Mineral,VA,23117,3918,LOUISA,27968,"c(-77.897522, 37.9907)"
Stop In Food Stores 70,2212 Ivy Rd,NA,Charlottesville,VA,22903,4976,CHARLOTTESVILLE,29343,"c(-78.515282, 38.044735)"
Country Corner Market,14 Doctors Rd,NA,Louisa,VA,23093,6013,LOUISA,29772,"c(-78.118469, 38.102055)"
Dayton Mini Market,237 Main St,NA,Dayton,VA,22821,9730,ROCKINGHAM,29937,"c(-78.938347, 38.415203)"
5th Street Exxon 50,1154 5th St Sw,NA,Charlottesville,VA,22902,6470,CHARLOTTESVILLE,30175,"c(-78.502731, 38.011967)"
Ammi LLC dba Dogwood Express Market,1422 N Amherst Hwy,NA,Amherst,VA,24521,4337,AMHERST,30687,"c(-79.015152, 37.618668)"
Springhill Market N/A,1730 Spring Hill Rd,NA,Staunton,VA,24401,1877,STAUNTON,31635,"c(-79.073792, 38.174686)"
The Market At Locust Grove 81,32301 Constitution Hwy,NA,Locust Grove,VA,22508,2707,ORANGE,31889,"c(-77.809814, 38.305092)"
The Market At Mill Creek 83,1345 Parham Cir,NA,Charlottesville,VA,22902,8728,CHARLOTTESVILLE,31902,"c(-78.497337, 37.999474)"
The Maket At Pantops 60,1192 Richmond Rd,NA,Charlottesville,VA,22911,3516,ALBEMARLE,31905,"c(-78.45594, 38.033798)"
7-eleven 11128g 11128G,1103 Ivy St,NA,Waynesboro,VA,22980,2620,WAYNESBORO,31975,"c(-78.894234, 38.076073)"
7-Eleven Inc F 20792C,2001 Rosser Ave,NA,Waynesboro,VA,22980,7403,WAYNESBORO,32000,"c(-78.935371, 38.064007)"
A Plus Mart & Checks Cashed,383 N Main St,NA,Harrisonburg,VA,22802,3939,HARRISONBURG,33689,"c(-78.868042, 38.453194)"
7-eleven 35272A,3455 Seminole Trl,NA,Charlottesville,VA,22911,5637,ALBEMARLE,33939,"c(-78.436569, 38.130928)"
FLOWERS BAKERY STORE 4656,360 Greenbrier Dr,NA,Charlottesville,VA,22901,1619,ALBEMARLE,34512,"c(-78.486626, 38.071556)"
Sheetz 285,332 Madison Rd,NA,Orange,VA,22960,1016,ORANGE,34585,"c(-78.114647, 38.252697)"
Chuck Stop 1,2896 Scotts Bottom Rd,NA,Dillwyn,VA,23936,3021,BUCKINGHAM,35518,"c(-78.416588, 37.536469)"
The Market At Preston Ave 65,601 Preston Ave,NA,Charlottesville,VA,22903,4537,CHARLOTTESVILLE,36816,"c(-78.485878, 38.035378)"
Wolftown Mercantile Country Store,3801 Wolftown Hood Road,NA,Wolftown,VA,22727,NA,MADISON,37883,"c(-78.347885, 38.355808)"
Green Mountain Country Store,5977 Scottsville Rd,NA,Scottsville,VA,24590,4087,ALBEMARLE,38261,"c(-78.555191, 37.865463)"
New Bridge Market,2983 New Bridge Rd,NA,Mineral,VA,23117,4866,LOUISA,38462,"c(-77.827019, 38.084419)"
Family Dollar Store 12143,211 S Main St,NA,Amherst,VA,24521,2636,AMHERST,38590,"c(-79.052376, 37.584782)"
Fas Mart 48,11625 Brock Rd,NA,Spotsylvania,VA,22553,4230,SPOTSYLVANIA,39039,"c(-77.708832, 38.321625)"
Bear Creek Market,591 Trents Mill Rd,NA,Cumberland,VA,23040,2321,CUMBERLAND,39285,"c(-78.26825, 37.543903)"
S Fuel Co,901 E Market St,NA,Charlottesville,VA,22902,5342,CHARLOTTESVILLE,39891,"c(-78.475212, 38.029648)"
Route 60 Convenience,14241 W James Anderson Hwy,NA,Buckingham,VA,23921,3146,BUCKINGHAM,39975,"c(-78.535736, 37.548977)"
Dollar General 13795,1761 Jefferson Hwy,NA,Fishersville,VA,22939,NA,AUGUSTA,39995,"c(-78.969337, 38.098988)"
Fas Mart 10,16257 N Madison Road,NA,Dilwyn,VA,23936,NA,BUCKINGHAM,40353,"c(-78.472244, 37.545063)"
Food Depot 609,502 E Main St,NA,Louisa,VA,23093,4100,LOUISA,40663,"c(-77.990334, 38.019463)"
Jags Market And Deli,3788 N Seminole Trl,NA,Brightwood,VA,22715,1602,MADISON,40912,"c(-78.204155, 38.416824)"
Food Lion 864,1740 Timberwood Blvd,NA,Charlottesville,VA,22911,7593,ALBEMARLE,41035,"c(-78.437149, 38.128872)"
Walmart Supercenter 2807,2160 John Wayland Hwy,NA,Harrisonburg,VA,22801,4509,HARRISONBURG,41749,"c(-78.908806, 38.430859)"
INTERNATIONAL FOODS,30 Baxter Dr,NA,Harrisonburg,VA,22801,7618,HARRISONBURG,41823,"c(-78.903854, 38.412079)"
Clocktower Convience Store 1,29 W Beverley St,NA,Staunton,VA,24401,4202,STAUNTON,43515,"c(-79.07299, 38.149532)"
7-Eleven Store 35771J,3275 S Main St,NA,Harrisonburg,VA,22801,2676,HARRISONBURG,43794,"c(-78.908928, 38.40588)"
Food Maxx International N/A,924 W Market St,NA,Harrisonburg,VA,22801,2136,HARRISONBURG,43816,"c(-78.884079, 38.452957)"
7 Eleven 16543,385 Greenbrier Dr,NA,Charlottesville,VA,22901,1618,ALBEMARLE,45944,"c(-78.485825, 38.071045)"
Belsches Kwik Stop,17330 Belsches Rd,NA,Bumpass,VA,23024,2102,LOUISA,46426,"c(-77.700424, 37.922626)"
Sheetz 491,135 Market St,NA,Gordonsville,VA,22942,9170,ORANGE,46669,"c(-78.186646, 38.13633)"
7-eleven 39786A,3240 S Main St,NA,Harrisonburg,VA,22801,2672,HARRISONBURG,47206,"c(-78.907104, 38.407082)"
Sheetz 303,2902 S Seminole Trl,NA,Madison,VA,22727,2509,MADISON,47675,"c(-78.286095, 38.346024)"
Goose Creek Market Liberty,3280 Stuarts Draft Hwy,NA,Waynesboro,VA,22980,7319,WAYNESBORO,47781,"c(-79.008911, 38.043308)"
Family Fashion Llc,98 Kenmore St,NA,Harrisonburg,VA,22801,4313,HARRISONBURG,48109,"c(-78.858139, 38.443924)"
JIFFEE MART,806 Grubert Ave,NA,Staunton,VA,24401,1772,STAUNTON,48178,"c(-79.089951, 38.167145)"
Sheetz 332,798 E Market St,NA,Harrisonburg,VA,22801,NA,HARRISONBURG,48206,"c(-78.853394, 38.446743)"
Fas Mart 3530,450 E Main St,NA,Louisa,VA,23093,6518,LOUISA,48322,"c(-77.992439, 38.019875)"
Guru Food Mart,841 Greenville Ave,NA,Staunton,VA,24401,4941,STAUNTON,48402,"c(-79.064247, 38.134403)"
Sheetz 302,1250 Richmond Ave,NA,Staunton,VA,24401,4976,STAUNTON,48438,"c(-79.042961, 38.134315)"
Greene Farmers Market,40 Celt Rd,NA,Stanardsville,VA,22973,3001,GREENE,48519,"c(-78.441139, 38.296803)"
Dollar General Store 9786,14804 Spotswood Trl,NA,Elkton,VA,22827,3024,ROCKINGHAM,49000,"c(-78.651237, 38.405373)"
Eastside Grocery,534 E Side Hwy,NA,Waynesboro,VA,22980,8920,WAYNESBORO,49154,"c(-78.857574, 38.109222)"
7-Eleven Inc F 35273A,1907 Emmet St N,NA,Charlottesville,VA,22901,2814,ALBEMARLE,49156,"c(-78.491882, 38.062012)"
Dollar General Store 2726,2814 Stuarts Draft Hwy,NA,Stuarts Draft,VA,24477,2780,AUGUSTA,49235,"c(-79.028885, 38.036716)"
Kings Market,80 King Ave,NA,Waynesboro,VA,22980,3773,WAYNESBORO,49514,"c(-78.894501, 38.075489)"
Tom Thumb Food Mart,828 Cherry Ave,NA,Charlottesville,VA,22903,3457,CHARLOTTESVILLE,51924,"c(-78.494133, 38.028679)"
N C Mart,25306 N James Madison Hwy,NA,New Canton,VA,23123,2225,BUCKINGHAM,52475,"c(-78.363426, 37.632904)"
Dollar General 18577,5671 Lowesville Rd,NA,Piney River,VA,22964,NA,NELSON,52875,"c(-79.020088, 37.71759)"
Easy Mart,507 Stewart St,NA,Charlottesville,VA,22902,5439,CHARLOTTESVILLE,53160,"c(-78.464867, 38.030853)"
Stop In Food Stores 112,2030 Rosser Ave,NA,Waynesboro,VA,22980,7463,WAYNESBORO,54254,"c(-78.936111, 38.063557)"
Groceries El Chaparro,206 Charles St,NA,Harrisonburg,VA,22802,4612,HARRISONBURG,54682,"c(-78.861404, 38.463562)"
Gum Springs Pit Stop 532,1300 Cross County Rd,NA,Mineral,VA,23117,2529,LOUISA,54967,"c(-77.885338, 37.782753)"
Nishivansh Llc,1210 Churchville Ave,NA,Staunton,VA,24401,2701,STAUNTON,55362,"c(-79.088486, 38.166466)"
Dollar General 18049,5720 Courthouse Rd,NA,Spotsylvania,VA,22551,6102,SPOTSYLVANIA,55524,"c(-77.764458, 38.117359)"
African Market Place Llc,1901 Commonwealth Dr,NA,Charlottesville,VA,22901,2338,ALBEMARLE,56322,"c(-78.496292, 38.066753)"
Trader Joes 661,2025 Bond St,NA,Charlottesville,VA,22901,NA,ALBEMARLE,57134,"c(-78.491112, 38.064308)"
3 Star Food Mart,1350 Orange Rd,NA,Culpeper,VA,22701,3552,CULPEPER,57913,"c(-77.997902, 38.463116)"
Second Street Farmers' Market,194 2nd St,NA,Amherst,VA,24521,2710,AMHERST,57968,"c(-79.048355, 37.583206)"
Walgreens 17477,74 Tanbark Plz,NA,Lovingston,VA,22949,2464,NELSON,59248,"c(-78.872162, 37.761059)"
MEATING PLACE,1070 Middlebrook Rd,NA,Staunton,VA,24401,5451,STAUNTON,59381,"c(-79.132736, 38.115845)"
Food Lion 384,208 LAUREL HILLS RD,NA,VERONA,VA,24482,NA,AUGUSTA,60527,"c(-79.002983, 38.195164)"
Food Lion 253,570 RIVERBEND DR.,NA,CHARLOTTESVILLE,VA,22902,NA,CHARLOTTESVILLE,60556,"c(-78.456367, 38.030945)"
Food Lion 238,1131 5th St SW,NA,Charlottesville,VA,22902,6464,CHARLOTTESVILLE,60568,"c(-78.501701, 38.013115)"
7-Eleven 28415J,305 Augusta Ave,NA,Grottoes,VA,24441,2511,ROCKINGHAM,60692,"c(-78.81971, 38.261684)"
Nu Beginning The Store,221 N Lewis St,NA,Staunton,VA,24401,3348,STAUNTON,60787,"c(-79.074989, 38.152119)"
Rebeccas Natural Food,1141 Emmet St N,NA,Charlottesville,VA,22903,4837,CHARLOTTESVILLE,60877,"c(-78.500145, 38.051945)"
ARRINGTON MINI MART,12 Variety Mills Rd,NA,Arrington,VA,22922,2701,NELSON,61489,"c(-78.900391, 37.683159)"
Sheetz 218,533 University Blvd,NA,Harrisonburg,VA,22801,3729,HARRISONBURG,61505,"c(-78.856232, 38.428959)"
7-Eleven Inc F 28426B,6132 Spotswood Trl,NA,Penn Laird,VA,22846,9767,ROCKINGHAM,61726,"c(-78.796379, 38.377907)"
Dollar General 20472,1372 Bumpass Rd,NA,Bumpass,VA,23024,4226,LOUISA,61921,"c(-77.732498, 37.964394)"
208 VARIETY STORE,6274 Courthouse Rd,NA,Spotsylvania,VA,22551,6114,SPOTSYLVANIA,62145,"c(-77.724991, 38.138374)"
Kroger 310,1790 E Market St,Ste 60,Harrisonburg,VA,22801,5118,HARRISONBURG,63517,"c(-78.842705, 38.431385)"
Millers Market,628 Mineral Ave,NA,Mineral,VA,23117,4011,LOUISA,63886,"c(-77.908485, 38.004688)"
Schwans Home Service 112120,32 Franklin St,NA,Weyers Cave,VA,24486,NA,AUGUSTA,63895,"c(-78.915916, 38.284046)"
Food Lion 973,36127 Goodwin Dr,NA,Locust Grove,VA,22508,2029,ORANGE,64673,"c(-77.74614, 38.348343)"
Sheetz 222,1825 S Main St,NA,Harrisonburg,VA,22801,5729,HARRISONBURG,65841,"c(-78.889542, 38.42461)"
Dollar General 21710,340 N Central Ave,NA,Staunton,VA,24401,3392,STAUNTON,66659,"c(-79.073708, 38.155563)"
Food Lion 1334,600 N Coalter St,NA,Staunton,VA,24401,3403,STAUNTON,66881,"c(-79.062576, 38.159088)"
Food Lion 1361,2105 Academy Rd,NA,Powhatan,VA,23139,NA,POWHATAN,67233,"c(-77.884277, 37.538269)"
Food Lion 1298,408 Gordon Plaza,NA,Gordonsville,VA,22942,NA,ORANGE,68526,"c(-78.205513, 38.13245)"
SHARP SHOPPER,2475 S Main St,Ste A,Harrisonburg,VA,22801,7601,HARRISONBURG,68875,"c(-78.895493, 38.418591)"
HARRIS TEETER 132,159 Community St,NA,Charlottesville,VA,22911,5602,ALBEMARLE,69528,"c(-78.442902, 38.127724)"
Dollar General 0431,5742 Three Notch D Rd,NA,Crozet,VA,22932,3107,ALBEMARLE,71107,"c(-78.698502, 38.069286)"
The Store,1201 6th St SE,NA,Charlottesville,VA,22902,6308,CHARLOTTESVILLE,72652,"c(-78.483887, 38.020599)"
Dollar General 2854,1781 E Side Hwy,NA,Crimora,VA,24431,2401,AUGUSTA,73168,"c(-78.840866, 38.150246)"
Goochland Market Place,1345 Broad Street Rd,NA,Oilville,VA,23129,2101,GOOCHLAND,73645,"c(-77.781143, 37.70216)"
Martins Food Market 6285,437 Tiffany Dr,NA,Waynesboro,VA,22980,NA,WAYNESBORO,73772,"c(-78.930183, 38.065422)"
Walmart Supercenter 1344,1028 Richmond Ave,Ste C,Staunton,VA,24401,4901,STAUNTON,74096,"c(-79.044891, 38.136009)"
INTEGRAL YOGA NAT. FOODS,923 Preston Ave,Ste H,Charlottesville,VA,22903,4446,CHARLOTTESVILLE,74206,"c(-78.490097, 38.038284)"
Food Lion 959,264 Turkey Sag Trail,NA,Palmyra,VA,22963,NA,FLUVANNA,74499,"c(-78.342216, 37.90432)"
Harrisonburg Halal Market And Sweets Llc,182 Neff Ave,Ste W5,Harrisonburg,VA,22801,3488,HARRISONBURG,75346,"c(-78.845627, 38.426266)"
Fas Mart 3522,109 E Gordon Ave,NA,Gordonsville,VA,22942,9609,ORANGE,75448,"c(-78.188828, 38.14283)"
GREENE GREAT VALU INC,8271 Spotswood Trl,NA,Stanardsville,VA,22973,2848,GREENE,76016,"c(-78.443504, 38.297253)"
Fas Mart 3543,240 Rolkin Rd,NA,Charlottesville,VA,22911,3536,ALBEMARLE,76781,"c(-78.443916, 38.029881)"
Food Lion 2617,85 S Carlton St,NA,Harrisonburg,VA,22801,4324,HARRISONBURG,77195,"c(-78.857468, 38.442825)"
Family Dollar Store 3402,50 Main St,NA,Lovingston,VA,22949,NA,NELSON,78045,"c(-78.872604, 37.759979)"
Morwats Inc,1228 Clover Hill Rd,NA,Dayton,VA,22821,2331,ROCKINGHAM,78070,"c(-79.013229, 38.466831)"
Dollar General 0606,501 Meadowbrook Dr,NA,Culpeper,VA,22701,NA,CULPEPER,78317,"c(-78.009453, 38.457756)"
Dollar General 1959,8263 Spotswood Trl,NA,Stanardsville,VA,22973,2848,GREENE,79195,"c(-78.443634, 38.297272)"
Dollar General 0879,36108 Goodwin Dr,NA,Locust Grove,VA,22508,2030,ORANGE,79196,"c(-77.745293, 38.348778)"
Dollar General 0434,543 Madison Rd,NA,Orange,VA,22960,1087,ORANGE,79200,"c(-78.115425, 38.256027)"
Dollar General 0436,406 E Main St,NA,Louisa,VA,23093,6518,LOUISA,79203,"c(-77.994659, 38.020264)"
Pilot Travel Center 396,3541 Lee Jackson Hwy,NA,Stuarts Draft,VA,24401,6915,STAUNTON,79601,"c(-79.140495, 38.02021)"
Stop In Food Stores 67,1220 Seminole Trl,NA,Charlottesville,VA,22901,1722,ALBEMARLE,84115,"c(-78.484818, 38.069832)"
"7-Eleven Store, Inc. 19049F",779 Madison Rd,NA,Culpeper,VA,22701,3325,CULPEPER,85054,"c(-78.019386, 38.456161)"
Sheetz 364,726 Tinkling Spring Rd,NA,Fishersville,VA,22939,2306,AUGUSTA,85241,"c(-78.992065, 38.079838)"
FINDERS KEEPERS,44 Waterman Dr,NA,Harrisonburg,VA,22802,2110,HARRISONBURG,85444,"c(-78.883202, 38.452614)"
TARGET STORE 2071,1995 E Market St,NA,Harrisonburg,VA,22801,3433,HARRISONBURG,85713,"c(-78.840469, 38.426865)"
Fas Mart 3560,3470 Seminole Trl,NA,Charlottesville,VA,22911,8221,ALBEMARLE,86462,"c(-78.436668, 38.131245)"
Dollar General 10432,990K Hopeman Pkwy,NA,Waynesboro,VA,22980,1824,WAYNESBORO,87797,"c(-78.885841, 38.086082)"
Family Dollar 26,761 E Market St,NA,Harrisonburg,VA,22801,4234,HARRISONBURG,88009,"c(-78.853996, 38.447723)"
Oilville Bp 586,1420 Broad Street Rd,NA,Oilville,VA,23129,2102,GOOCHLAND,89356,"c(-77.787231, 37.704628)"
La Bendicion International Market,1903 S Main St,NA,Harrisonburg,VA,22801,5726,HARRISONBURG,89867,"c(-78.890503, 38.423649)"
Asian Market,1417 Emmet St N,NA,Charlottesville,VA,22903,4874,CHARLOTTESVILLE,90433,"c(-78.496544, 38.056114)"
Fas Mart 3520,2404 Fontaine Ave,NA,Charlottesville,VA,22903,2915,CHARLOTTESVILLE,91008,"c(-78.519524, 38.025974)"
Fas Mart 3556,11445 James Madison Highway,NA,Gordonsville,VA,22942,NA,ORANGE,91079,"c(-78.216484, 37.973759)"
Fas Mart 3552,329 Washington St,NA,Madison,VA,22727,3029,MADISON,91920,"c(-78.253006, 38.379543)"
Martins Food Market 6426,1015 Richmond Ave,NA,Staunton,VA,24401,4905,STAUNTON,92410,"c(-79.047897, 38.138535)"
Dollar Tree 0271,14 Lee Jackson Hwy,NA,Staunton,VA,24401,5582,STAUNTON,92655,"c(-79.063751, 38.127907)"
West Park Market,490 Four Seasons Dr,NA,Charlottesville,VA,22901,1377,ALBEMARLE,94018,"c(-78.486786, 38.083405)"
Dollar General 18050,45 Judy Ln,NA,McGaheysville,VA,22840,2361,ROCKINGHAM,94287,"c(-78.73172, 38.374039)"
Love's Travel Stop 706,3499 Lee Jackson Hwy,NA,Staunton,VA,24401,6958,STAUNTON,95424,"c(-79.140495, 38.021793)"
Best Bet Food Store,2041 North Amherst Hwy,NA,Amherst,VA,24521,NA,AMHERST,95828,"c(-78.993309, 37.635361)"
Fas Mart 3548,1441 W Main St,NA,Waynesboro,VA,22980,2449,WAYNESBORO,96595,"c(-78.90097, 38.072556)"
Powhatan Village Farmers Market,3841 Old Buckingham Rd,NA,Powhatan,VA,23139,7020,POWHATAN,96641,"c(-77.917915, 37.538784)"
Dollar Tree 1721,2715 W Main St,NA,Waynesboro,VA,22980,1617,WAYNESBORO,97268,"c(-78.924744, 38.080521)"
Martins Food Market 6424,2035 E Market St,Ste 115,Harrisonburg,VA,22801,8881,HARRISONBURG,100470,"c(-78.841492, 38.424294)"
Weis Market 305,505 Meadowbrook Shopping Ctr,NA,Culpeper,VA,22701,3956,CULPEPER,101496,"c(-78.012108, 38.459141)"
Sharp Shopper,2800 W Main St,NA,Waynesboro,VA,22980,1620,WAYNESBORO,101835,"c(-78.928795, 38.082066)"
Columbia Corner Market,538 Saint James St,NA,Columbia,VA,23038,2891,FLUVANNA,102236,"c(-78.16037, 37.751766)"
7-eleven 28599d 28599D,601 N Main St,NA,Gordonsville,VA,22942,9119,ORANGE,102693,"c(-78.190002, 38.142963)"
Valleys Convience,6080 Spotswood Trl,NA,Penn Laird,VA,22846,9793,ROCKINGHAM,103021,"c(-78.797287, 38.378109)"
Crossroad Express Market,2416 Piedmont Rd,NA,Gladstone,VA,24553,3019,NELSON,103043,"c(-78.896263, 37.571625)"
CVS Pharmacy 1556,1170 Emmet St N,NA,Charlottesville,VA,22903,4836,CHARLOTTESVILLE,104137,"c(-78.499001, 38.052223)"
CVS 7558,720 Roundhill Rd,NA,Orange,VA,22960,2240,ORANGE,104142,"c(-78.117851, 38.260242)"
CVS 7561,503 East Main St,NA,Louisa,VA,23093,NA,LOUISA,104143,"c(-77.991714, 38.019817)"
CVS Pharmacy 1555,1133 5th St SW,NA,Charlottesville,VA,22902,6464,CHARLOTTESVILLE,104414,"c(-78.501534, 38.013302)"
Target Stores 2294,811 Town Center Dr,NA,Waynesboro,VA,22980,9262,WAYNESBORO,105467,"c(-78.943314, 38.057007)"
Food Lion 2696,30 Windward Dr Ste 102,NA,Fishersville,VA,22939,2167,AUGUSTA,105687,"c(-78.978477, 38.106438)"
Fas Mart 3532,44 Callohill Dr,NA,Lovingston,VA,22949,9701,NELSON,105736,"c(-78.876991, 37.753338)"
ALDI 80041,100 Albermarle Square,NA,Charlottesville,VA,22901,NA,ALBEMARLE,105782,"c(-78.471802, 38.080936)"
Family Dollar Store 6244,15967 N James Madison Hwy,NA,Dillwyn,VA,23936,3342,BUCKINGHAM,107921,"c(-78.475739, 37.541897)"
Dillwyn Food Mart,1196 Main St,NA,Dillwyn,VA,23936,2472,BUCKINGHAM,108285,"c(-78.45417, 37.542488)"
The Cheese Shop,2366 Tinkling Spring Rd,NA,Stuarts Draft,VA,24477,3218,AUGUSTA,109004,"c(-79.036331, 38.043583)"
Sheetz 408,2156 W Main St,NA,Waynesboro,VA,22980,1754,WAYNESBORO,109306,"c(-78.915977, 38.077164)"
The Market At Cherry Avenue 20,701 Cherry Ave,NA,Charlottesville,VA,22903,5516,CHARLOTTESVILLE,109704,"c(-78.491837, 38.027859)"
KROGER  359,1159 Emmet St N,NA,Charlottesville,VA,22903,4837,CHARLOTTESVILLE,109782,"c(-78.49987, 38.052189)"
Dollar Tree 3118,420 Pantops Ctr,NA,Charlottesville,VA,22911,8693,ALBEMARLE,110181,"c(-78.457832, 38.031078)"
Hilltop Grocery,2808 Hydraulic Rd,NA,Charlottesville,VA,22901,2917,ALBEMARLE,110411,"c(-78.497513, 38.076183)"
7 Eleven 11117K,50 Draft Ave,NA,Stuarts Draft,VA,24477,2745,AUGUSTA,111816,"c(-79.0345, 38.032776)"
3b Grocery,2594 East Side Hwy,NA,Crimora,VA,24431,2418,AUGUSTA,112315,"c(-78.84568, 38.177589)"
Walgreens 10923,412 E Main St,NA,Louisa,VA,23093,6518,LOUISA,113008,"c(-77.995384, 38.020374)"
H Mart,1500 S Main St,NA,Harrisonburg,VA,22801,2925,HARRISONBURG,113113,"c(-78.883217, 38.431244)"
Dollar General 17919,4814 Penlan Rd,NA,New Canton,VA,23123,NA,BUCKINGHAM,113553,"c(-78.355095, 37.651215)"
Medina Market,620 Albemarle Sq,NA,Charlottesville,VA,22901,7406,ALBEMARLE,114700,"c(-78.471581, 38.083836)"
CVS 10746,1700 Seminole Trl,NA,Charlottesville,VA,22901,NA,ALBEMARLE,114800,"c(-78.473518, 38.082645)"
Lake Anna Market,5752 Courthouse Rd,NA,Spotsylvania,VA,22551,6103,SPOTSYLVANIA,116072,"c(-77.75885, 38.117386)"
Sam's Club 6365,970 Hilton Heights Rd,NA,Charlottesville,VA,22901,8393,ALBEMARLE,117055,"c(-78.466454, 38.098564)"
Stuarts Draft Farm Market,2964 Stuarts Draft Hwy,NA,Stuarts Draft,VA,24477,2782,AUGUSTA,117814,"c(-79.022606, 38.039108)"
Family Dollar Store 5927,2718 Fairground Rd,NA,Goochland,VA,23063,3103,GOOCHLAND,117891,"c(-77.884834, 37.6978)"
Family Dollar Store 5382,3430 Anderson Hwy,NA,Powhatan,VA,23139,NA,POWHATAN,117907,"c(-77.886345, 37.538425)"
7-eleven 39200a 39200A,101 Crossing Way,NA,Staunton,VA,24401,5095,STAUNTON,118368,"c(-79.038689, 38.131622)"
Fas Mart 3535,1800 Monticello Rd,NA,Charlottesville,VA,22902,6256,CHARLOTTESVILLE,119295,"c(-78.473808, 38.013756)"
Food Lion 2697,198 Scottsville Ctr,NA,Scottsville,VA,24590,3992,ALBEMARLE,119598,"c(-78.50267, 37.808575)"
ORIENTAL FOOD MARKET,911 S High St,NA,Harrisonburg,VA,22801,1601,HARRISONBURG,119897,"c(-78.885078, 38.440598)"
Colleen Exxon & Convenience,4071 Thomas Nelson Hwy,NA,Arrington,VA,22922,2302,NELSON,120550,"c(-78.93383, 37.708042)"
Family Dollar Store 2955,2788 James Madison Hwy,Hwy 15S,Bremo Bluff,VA,23022,NA,FLUVANNA,120603,"c(-78.287582, 37.748253)"
Family Dollar Store 5264,2475 S Main St,Ste B,Harrisonburg,VA,22801,7601,HARRISONBURG,120669,"c(-78.895493, 38.418591)"
Family Dollar Store 1159,2576 Stuarts Draft Hwy,Ste 110,Stuarts Draft,VA,24477,3190,AUGUSTA,120673,"c(-79.03875, 38.033268)"
Family Dollar Store 179,502 E Main St,Ste 7,Louisa,VA,23093,4100,LOUISA,120681,"c(-77.990097, 38.019413)"
Dollar General 14059,32361 Constitution Hwy,NA,Locust Grove,VA,22508,2707,ORANGE,120727,"c(-77.806641, 38.305805)"
340 Quick Stop Inc,14014 S East Side Hwy,NA,Port Republic,VA,24471,2303,ROCKINGHAM,120910,"c(-78.798492, 38.282726)"
Family Dollar Store 2753,600 Augusta Ave,NA,Grottoes,VA,24441,2406,ROCKINGHAM,120922,"c(-78.81868, 38.263302)"
DOLLARTREE 8366,30 Windward Dr,Ste 114,Fishersville,VA,22939,2184,AUGUSTA,121276,"c(-78.980392, 38.106236)"
Food Lion 484,501 East Main St,NA,Louisa,VA,23093,4133,LOUISA,122069,"c(-77.992729, 38.019989)"
Food Lion 940,136 Cedar Grove Rd,NA,Ruckersville,VA,22968,3603,GREENE,122319,"c(-78.387741, 38.208321)"
Sheetz 238,7020 Seminole Trl,NA,Ruckersville,VA,22968,3449,GREENE,122718,"c(-78.385567, 38.208405)"
ROSE HILL MARKET,633 1/2 Rose Hill Dr,NA,Charlottesville,VA,22903,5235,CHARLOTTESVILLE,123259,"c(-78.487839, 38.037769)"
Harris Teeter 177,975 Emmet St,Space 8,Charlottesville,VA,22903,NA,CHARLOTTESVILLE,123772,"c(-78.504387, 38.050282)"
Circle K 2723210,636 Greenville Ave,NA,Staunton,VA,24401,4804,STAUNTON,123971,"c(-79.069481, 38.137997)"
Circle K 2723713,313 Springfield Ln,NA,Staunton,VA,24401,5649,STAUNTON,123977,"c(-79.098648, 38.076923)"
Walgreens 09417,3489 Seminole Trl,NA,Charlottesville,VA,22911,5637,ALBEMARLE,124472,"c(-78.435829, 38.131599)"
7-Eleven Inc 21482L,1199 N Seminole Trl,NA,Madison,VA,22727,4002,MADISON,125356,"c(-78.234062, 38.39621)"
7-Eleven Inc 15548J,101 Byrd St,NA,Orange,VA,22960,1614,ORANGE,125364,"c(-78.109055, 38.245361)"
7-Eleven Inc 11122H,427 N Coalter St,NA,Staunton,VA,24401,3464,STAUNTON,127857,"c(-79.06385, 38.157211)"
Walmart Neighborhood Market 4388,1211 W Broad St,NA,Waynesboro,VA,22980,4326,WAYNESBORO,128735,"c(-78.894608, 38.071415)"
Food Lion 1402,577 N Madison Rd,#15,Orange,VA,22960,NA,ORANGE,128929,"c(-78.113785, 38.257191)"
Harris Teeter 332,545 Radford Ln,NA,Charlottesville,VA,22903,NA,CHARLOTTESVILLE,130390,"c(-78.682686, 38.051456)"
Walgreens 17883,101 Rosser Ave,NA,Waynesboro,VA,22980,3510,WAYNESBORO,131450,"c(-78.902245, 38.072376)"
Walgreens 19660,2596 Tinkling Spring Rd,NA,Stuarts Draft,VA,24477,2797,AUGUSTA,131572,"c(-79.035103, 38.037079)"
Walgreens 18425,599 Mount Clinton Pike,NA,Harrisonburg,VA,22802,2500,HARRISONBURG,131682,"c(-78.871391, 38.468494)"
Walgreens 17626,314 Rolkin Rd,NA,Charlottesville,VA,22911,3556,ALBEMARLE,131687,"c(-78.442764, 38.030846)"
Glenmore Country Store,20 Glenmore Rd,NA,Howardsville,VA,24562,4096,BUCKINGHAM,132131,"c(-78.589912, 37.671494)"
Family Dollar Store 1135,1135 5th St SW,NA,Charlottesville,VA,22902,6464,CHARLOTTESVILLE,132155,"c(-78.501656, 38.013187)"
Family Dollar Store 1427,1300 W Broad St,NA,Waynesboro,VA,22980,2436,WAYNESBORO,132253,"c(-78.898132, 38.072742)"
Family Dollar Store 4176,17 Scenic Hwy,NA,Churchville,VA,24421,2400,AUGUSTA,132261,"c(-79.168564, 38.230583)"
Family Dollar Store 476,107 S Stuart Ave,NA,Elkton,VA,22827,1525,ROCKINGHAM,132575,"c(-78.618797, 38.409096)"
Family Dollar Store 2963,408G W Gordon Ave,NA,Gordonsville,VA,22942,7551,ORANGE,132579,"c(-78.193413, 38.139641)"
Family Dollar Store 299,143 Madison Rd,NA,Orange,VA,22960,1409,ORANGE,132795,"c(-78.111824, 38.246815)"
Dollar General 11421,4091 James Madison Hwy,NA,Fork Union,VA,23055,2309,FLUVANNA,133031,"c(-78.27002, 37.755444)"
Dollar General 11300,172 Davis Hwy,NA,Mineral,VA,23117,4152,LOUISA,133427,"c(-77.910728, 38.014938)"
7-eleven 19321f 19321F,5545 Germanna Hwy,NA,Locust Grove,VA,22508,2020,ORANGE,133508,"c(-77.727318, 38.326443)"
7-Eleven 36085A,1245 Seminole Trl,NA,Charlottesville,VA,22901,1869,ALBEMARLE,133818,"c(-78.483932, 38.070389)"
Fas Mart 3540,13626 James Madison Hwy,NA,Palmyra,VA,22963,4499,FLUVANNA,133998,"c(-78.263527, 37.861977)"
7-eleven 39846a 39846A,1168 Virginia Ave,NA,Harrisonburg,VA,22802,2520,HARRISONBURG,134750,"c(-78.87104, 38.468098)"
GOODWAY INC,16489 Beaver Dam Rd,NA,Montpelier,VA,23192,2130,HANOVER,135993,"c(-77.69294, 37.86483)"
Dollar General 11303,36 Franklin St,NA,Weyers Cave,VA,24486,2340,AUGUSTA,136090,"c(-78.915833, 38.284195)"
Dollar General 11518,107 3rd St,NA,Grottoes,VA,24441,1525,ROCKINGHAM,136092,"c(-78.823166, 38.26133)"
Target Stores 1858,3290 Seminole Trl,NA,Charlottesville,VA,22911,5634,ALBEMARLE,136434,"c(-78.440323, 38.127975)"
Market Street Market,400 E Market St,NA,Charlottesville,VA,22902,5214,CHARLOTTESVILLE,136770,"c(-78.478851, 38.030781)"
7-Eleven Inc F 16728,2218 Barracks Rd,NA,Charlottesville,VA,22903,4812,CHARLOTTESVILLE,137997,"c(-78.502159, 38.055973)"
Fas Mart 3542,241 Rolkin Rd,NA,Charlottesville,VA,22911,3536,ALBEMARLE,139224,"c(-78.443787, 38.02993)"
Walgreens 17535,14813 Spotswood Trl,NA,Elkton,VA,22827,3024,ROCKINGHAM,139569,"c(-78.651337, 38.405621)"
Walgreens 17547,590 Madison Rd,NA,Culpeper,VA,22701,3374,CULPEPER,139611,"c(-78.012909, 38.459526)"
Walgreens 17607,501 N Coalter St,NA,Staunton,VA,24401,3402,STAUNTON,139612,"c(-79.063354, 38.15789)"
Blue Ridge Grocery,2797 Rockfish Valley Hwy,NA,Nellysford,VA,22958,2309,NELSON,141120,"c(-78.874146, 37.889702)"
Nx Gen Retail Inc,13338 S Constitution Rte,NA,Scottsville,VA,24590,6280,ALBEMARLE,141218,"c(-78.503624, 37.718254)"
"THOMAS INC, E W",13027 James Madison Hwy,NA,PALMYRA,VA,22963,0101,FLUVANNA,141588,"c(-78.269005, 37.855503)"
Sinbad,2189 S Main St,NA,Harrisonburg,VA,22801,2683,HARRISONBURG,141852,"c(-78.893623, 38.422596)"
Dollar Tree 1457,2188 John Wayland Hwy,NA,Harrisonburg,VA,22801,4509,HARRISONBURG,143163,"c(-78.909073, 38.43082)"
Dollar Tree 7294,335 Merchant Walk Sq,Bldg 800,Charlottesville,VA,22902,6508,CHARLOTTESVILLE,144936,"c(-78.500084, 38.010544)"
La Confianza Tienda Latina,288 N Main St,NA,Harrisonburg,VA,22802,3821,HARRISONBURG,146000,"c(-78.867821, 38.452232)"
Costco Wholesale 1184,3171 District Ave,NA,Charlottesville,VA,22901,2784,ALBEMARLE,146335,"c(-78.490982, 38.068451)"
Kidds Store LLC,8469 W River Rd,NA,Scottsville,VA,24590,4688,ALBEMARLE,146562,"c(-78.360062, 37.804169)"
Dollar Tree 17,1663 E Market St,NA,Harrisonburg,VA,22801,5116,HARRISONBURG,146826,"c(-78.845909, 38.433804)"
KEYSTONE GROCERY,14008 W Catharpin Rd,NA,Spotsylvania,VA,22551,5328,SPOTSYLVANIA,148274,"c(-77.820076, 38.219093)"
Food Lion 1576,Highway 20 BUCKINGHAM PLAZA,NA,DILLWYN,VA,23936,NA,BUCKINGHAM,148498,"c(-78.474983, 37.542171)"
Caul's Grocery,4530 Monacan Trail Rd,NA,North Garden,VA,22959,2215,ALBEMARLE,148773,"c(-78.681305, 37.921993)"
Nishivansh Llc,2231 W Beverley St,NA,Staunton,VA,24401,2903,STAUNTON,149271,"c(-79.10231, 38.155216)"
La Guadalupana,221 Carlton Rd,Ste 15,Charlottesville,VA,22902,5983,CHARLOTTESVILLE,149764,"c(-78.46936, 38.023621)"
Quick Mart,1207 Grady Ave,NA,Charlottesville,VA,22903,2222,CHARLOTTESVILLE,150276,"c(-78.494614, 38.039597)"
Food Lion 1536,32 Mill Creek Dr,NA,Charlottesville,VA,22902,8718,CHARLOTTESVILLE,154459,"c(-78.49675, 38.000114)"
Costco Wholesale 0238,1830 Reservoir St,NA,Harrisonburg,VA,22801,8742,HARRISONBURG,155044,"c(-78.855499, 38.428768)"
Walmart Supercenter 4682,164 Camp Creek Pkwy,NA,Gordonsville,VA,22942,6878,ORANGE,157070,"c(-78.208679, 37.979435)"
Route 20 Market,3407 S Constitution Rte,NA,Dillwyn,VA,23936,2232,BUCKINGHAM,158553,"c(-78.500504, 37.586655)"
Harrisonburg Farmers Market,228 S Liberty St,NA,Harrisonburg,VA,22801,3622,HARRISONBURG,158778,"c(-78.871307, 38.446739)"
MERCADO WORLD FOODS,900 Gardens Blvd,Ste 300,Charlottesville,VA,22901,1469,ALBEMARLE,158850,"c(-78.470573, 38.083839)"
Afghan Grand Market,323 W Main St,NA,Charlottesville,VA,22903,5537,CHARLOTTESVILLE,158912,"c(-78.486061, 38.03056)"
C'ville Oriental,1195 Seminole Trl,NA,Charlottesville,VA,22901,2828,ALBEMARLE,159801,"c(-78.4851, 38.069069)"
Mineral Farmer's Market,81 Louisa Ave,NA,Mineral,VA,23117,4048,LOUISA,159872,"c(-77.907379, 38.012699)"
Sheetz 323,5504 Germanna Hwy,NA,Locust Grove,VA,22508,2019,ORANGE,160473,"c(-77.729088, 38.326538)"
CVS Pharmacy 1551,1341 Long St,NA,Charlottesville,VA,22901,4935,ALBEMARLE,161219,"c(-78.459389, 38.035)"
Family Dollar 3224,26 Clore Dr,NA,Ruckersville,VA,22968,3701,GREENE,161979,"c(-78.376656, 38.222492)"
Dollar General 17910,17475 Louisa Rd,NA,Louisa,VA,23093,4439,LOUISA,162252,"c(-78.075623, 38.051258)"
Go Mart Inc 128,3373 Lee Hwy,NA,Weyers Cave,VA,24486,2211,AUGUSTA,162412,"c(-78.935646, 38.28952)"
Fas Mart 3555,11497 James Madison Highway,NA,Gordonsville,VA,22942,NA,ORANGE,162681,"c(-78.216553, 37.97369)"
Go Mart Inc 129,596 Mount Hermon Rd,NA,Elkton,VA,22827,3029,ROCKINGHAM,163001,"c(-78.655197, 38.404671)"
Walmart Neighborhood Market 7177,1942 Port Republic Rd,NA,Rockingham,VA,22801,3532,HARRISONBURG,163447,"c(-78.862907, 38.404884)"
Dollar General 14639,1500 New Bridge Rd,NA,Mineral,VA,23117,4955,LOUISA,164413,"c(-77.853081, 38.082699)"
CVS Pharmacy 947,28 Abby Rd,NA,Palmyra,VA,22963,2085,FLUVANNA,164496,"c(-78.31221, 37.899475)"
CVS Pharmacy 67,208 E Main St,NA,Charlottesville,VA,22902,5232,CHARLOTTESVILLE,164957,"c(-78.480492, 38.030453)"
CVS Pharmacy 74,2823 W Main St,NA,Waynesboro,VA,22980,1619,WAYNESBORO,164958,"c(-78.929382, 38.082367)"
Walmart Supercenter 4638,135 Stoneridge Dr,NA,Ruckersville,VA,22968,3088,GREENE,165062,"c(-78.370476, 38.23597)"
The Ole Country Store and Bakery,18019 Country Store Dr,NA,Culpeper,VA,22701,8019,CULPEPER,165121,"c(-78.03643, 38.456902)"
Yoder's Country Market Inc.,2105 S Seminole Trl,NA,Madison,VA,22727,2851,MADISON,165580,"c(-78.277504, 38.354935)"
North Augusta Farmers Market,18 Government Center Ln,NA,Verona,VA,24482,2639,AUGUSTA,166430,"c(-79.014862, 38.193527)"
CVS Pharmacy 1554,3420 Seminole Trl,NA,Charlottesville,VA,22911,8221,ALBEMARLE,166506,"c(-78.438042, 38.129993)"
Village Market,1805 East Side Hwy,Ste 103,Crimora,VA,24431,9998,AUGUSTA,167068,"c(-78.840843, 38.152309)"
Indian Bazar,722 Rio Rd W,Ste 1,Charlottesville,VA,22901,1454,ALBEMARLE,167325,"c(-78.475006, 38.083244)"
CVS Pharmacy 4656,1417 University Ave,NA,Charlottesville,VA,22903,2606,CHARLOTTESVILLE,167336,"c(-78.500206, 38.034462)"
7-eleven 39897b 39977B,701 Port Republic Rd,NA,Harrisonburg,VA,22801,3327,HARRISONBURG,167601,"c(-78.874977, 38.427353)"
Family Dollar Store 8303,602 N Main St,NA,Bridgewater,VA,22812,1627,ROCKINGHAM,168045,"c(-78.967453, 38.389408)"
CVS Pharmacy 7002,PO Box 1017,S. MAIN ST,Amherst,VA,24521,1017,AMHERST,168088,"c(-79.066032, 37.607029)"
7-Eleven Inc F 16764F,2025 Ivy Rd,NA,Charlottesville,VA,22903,1713,CHARLOTTESVILLE,168209,"c(-78.510506, 38.042027)"
Waynesboro Farmers Market,215 W Main St,NA,Waynesboro,VA,22980,4537,WAYNESBORO,168397,"c(-78.896996, 38.070923)"
Seven Day Jr,111 Maury Ave,NA,Charlottesville,VA,22903,3009,CHARLOTTESVILLE,168497,"c(-78.515678, 38.026436)"
Aldi 156,113 George Cochran Pkwy,NA,Staunton,VA,24401,9172,STAUNTON,168667,"c(-79.102005, 38.163643)"
Sheetz 637,1519 University Ave,NA,Charlottesville,VA,22903,2636,CHARLOTTESVILLE,169207,"c(-78.500748, 38.035206)"
CVS Pharmacy 7594,36115 Goodwin Dr,NA,Locust Grove,VA,22508,2029,ORANGE,169216,"c(-77.746262, 38.348267)"
Express Mart,6261 Lawyers Rd,NA,Spotsylvania,VA,22551,6319,SPOTSYLVANIA,170734,"c(-77.783173, 38.130264)"
Fas Mart 3510,1159 Millmont St,NA,Charlottesville,VA,22903,4868,CHARLOTTESVILLE,172132,"c(-78.500786, 38.054134)"
Dollar General 17675,2985 Rockfish Valley Hwy,NA,Nellysford,VA,22958,2311,NELSON,173280,"c(-78.872101, 37.891056)"
Mecca Halal Processing Inc,20508 Blackjack Rd,NA,Culpeper,VA,22701,7606,CULPEPER,173508,"c(-77.917068, 38.417023)"
Sunshine Minimart,827 Cherry Ave,NA,Charlottesville,VA,22903,3448,CHARLOTTESVILLE,174604,"c(-78.494324, 38.028797)"
Oakhill Market And Deli,675 Country Green Rd,NA,Charlottesville,VA,22902,6482,CHARLOTTESVILLE,174605,"c(-78.522522, 38.005371)"
Balli Food Mart,608 N Delphine Ave,NA,Waynesboro,VA,22980,4107,WAYNESBORO,176578,"c(-78.872215, 38.073662)"
7-Eleven Inc F 39448A,6260 Walton Way,NA,Mt. Crawford,VA,22841,NA,ROCKINGHAM,177004,"c(-78.921364, 38.359043)"
Staunton-augusta Health Department Farmer's Market,1414 N Augusta St,NA,Staunton,VA,24401,2401,STAUNTON,177280,"c(-79.066673, 38.163177)"
Go Mart 125,3529 Lee Jackson Highway,NA,Greenville,VA,24440,NA,AUGUSTA,177723,"c(-79.141418, 38.017632)"
Dollar General 22386,8080 Kentucky Springs Rd,NA,Mineral,VA,23117,4528,LOUISA,177910,"c(-77.817551, 38.04845)"
7-Eleven 19337C,910 N Main St,NA,Harrisonburg,VA,22802,4627,HARRISONBURG,177930,"c(-78.859291, 38.458553)"
Anae Shop,506 Stewart St,NA,Charlottesville,VA,22902,5440,CHARLOTTESVILLE,177934,"c(-78.464607, 38.031456)"
WAWA 8659,3267 Proffit Rd.,NA,Charlottesville,VA,22911,NA,ALBEMARLE,178139,"c(-78.434143, 38.132206)"
Dona Fer Grocery Store,1060 Virginia Ave,NA,Harrisonburg,VA,22802,2533,HARRISONBURG,178805,"c(-78.869614, 38.46302)"
Pic N Pac,12805 Spotswood Trail,NA,Ruckersville,VA,22968,3376,GREENE,180384,"c(-78.397903, 38.249813)"
Dollar General 12452,19 Market St,NA,Palmyra,VA,22963,5448,FLUVANNA,180500,"c(-78.311638, 37.899879)"
WAWA 8667,820 Pantops Corner Way,NA,Charlottesville,VA,22911,NA,ALBEMARLE,180901,"c(-78.429619, 38.032417)"
Family Dollar Store 10858,813 Chicago Ave,NA,Harrisonburg,VA,22802,5606,HARRISONBURG,181941,"c(-78.874825, 38.460167)"
Food Lion 2567,46 Madison Plaza Dr,NA,Madison,VA,22727,3049,MADISON,184248,"c(-78.270706, 38.365833)"
Walmart Supercenter 5117,116 Lucy Ln,NA,Waynesboro,VA,22980,3275,WAYNESBORO,184667,"c(-78.935135, 38.065891)"
7-Eleven 11136K,1849 Seminole Trl,NA,Charlottesville,VA,22901,1129,ALBEMARLE,184761,"c(-78.470497, 38.087341)"
DOLLARTREE 8745,502 East Main St,NA,Louisa,VA,23093,4100,LOUISA,185103,"c(-77.990417, 38.019051)"
GIANT FOOD 251,1900 Abbey Rd,NA,Charlottesville,VA,22911,3543,ALBEMARLE,186448,"c(-78.445396, 38.030239)"
Fas Mart 3525,101 Crofton Pl,NA,Palmyra,VA,22963,3300,FLUVANNA,188340,"c(-78.316605, 37.924713)"
Walmart Supercenter 1780,975 Hilltop Heights Rd,NA,Charlottesville,VA,22901,NA,ALBEMARLE,188625,"c(-78.493713, 38.07021)"
Gas & Stuff,18160 Constitution Hwy,NA,Orange,VA,22960,4402,ORANGE,188758,"c(-78.05899, 38.242409)"
Walmart 1726,171 Burgess Rd,NA,Harrisonburg,VA,22801,3704,HARRISONBURG,189642,"c(-78.84948, 38.43314)"
Food Lion 2542,83 Augusta Ave,NA,Grottoes,VA,24441,2507,ROCKINGHAM,190195,"c(-78.822044, 38.256554)"
7-eleven 39801A,1915 Boulderview Road,NA,Charlottesville,VA,22911,NA,ALBEMARLE,190797,"c(-78.447411, 38.031101)"
Family Dollar Store 10843,535 Mineral Ave,NA,Mineral,VA,23117,9997,LOUISA,191774,"c(-77.908852, 38.006477)"
Food Lion 596,14811 Spotswood Trl,NA,Elkton,VA,22827,3024,ROCKINGHAM,192586,"c(-78.651352, 38.405613)"
Dollar General 7497,4171 Lee Jackson Hwy,NA,Greenville,VA,24440,0405,AUGUSTA,194629,"c(-79.158188, 38.001743)"
7-eleven 36891B,6 Lodge Ln,NA,Verona,VA,24482,9449,AUGUSTA,195108,"c(-79.001236, 38.194637)"
Big Lots 5401,590 Branchlands Blvd,NA,Charlottesville,VA,22901,1791,ALBEMARLE,195223,"c(-78.479469, 38.073273)"
Little Quick Mart,1116B W Beverley St,NA,Staunton,VA,24401,3112,STAUNTON,195224,"c(-79.085732, 38.151386)"
Dollar General 2836,171 Ambriar S/C,NA,Amherst,VA,24521,4741,AMHERST,197532,"c(-79.064217, 37.564449)"
Dollar General 3919,1317 W Broad St,NA,Waynesboro,VA,22980,2435,WAYNESBORO,197569,"c(-78.898521, 38.072971)"
Dollar General 3138,465 Lee Hwy,NA,Verona,VA,24482,2571,AUGUSTA,197665,"c(-79.007332, 38.203003)"
Dollar General 1865,1013 Greenville Ave,NA,Staunton,VA,24401,5018,STAUNTON,197666,"c(-79.062973, 38.132145)"
Dollar General 1747,88 Main St,NA,Lovingston,VA,22949,NA,NELSON,198241,"c(-78.871994, 37.759815)"
Market Central,522 2nd St SE,NA,Charlottesville,VA,22902,5574,CHARLOTTESVILLE,198550,"c(-78.482216, 38.026115)"
Apple Market 509,1425 N Amherst Hwy,NA,Amherst,VA,24521,2571,AMHERST,198602,"c(-79.014465, 37.62056)"
Dollar General 4828,2217 W Beverley St,NA,Staunton,VA,24401,2903,STAUNTON,198816,"c(-79.101151, 38.155487)"
Dollar General 1360,21 Main St,NA,Dillwyn,VA,23936,3330,BUCKINGHAM,198820,"c(-78.473625, 37.543419)"
Dollar General 462,969 Valley St,NA,Scottsville,VA,24590,8002,ALBEMARLE,199556,"c(-78.49942, 37.805943)"
Food Lion 132,2411 W Beverley St,NA,Staunton,VA,24401,2905,STAUNTON,199941,"c(-79.106621, 38.154198)"
Food Lion 2600,2724 Fairground Rd,NA,Goochland,VA,23063,3103,GOOCHLAND,202233,"c(-77.885086, 37.697834)"
BELMONT MARKET,834 Monticello Rd,NA,Charlottesville,VA,22902,5762,CHARLOTTESVILLE,202565,"c(-78.473808, 38.023712)"
Food Lion 754,990 Hopeman Pkwy,NA,Waynesboro,VA,22980,NA,WAYNESBORO,202981,"c(-78.884399, 38.086685)"
Dollar General 2472,13260 James Madison Hwy,NA,Orange,VA,22960,2810,ORANGE,203100,"c(-78.122215, 38.224239)"
El Milagro Llc,620 Hawkins St,NA,Harrisonburg,VA,22801,4348,HARRISONBURG,204938,"c(-78.855011, 38.445934)"
7 Eleven 28552C,203 S Stuart Ave,NA,Elkton,VA,22827,1564,ROCKINGHAM,205111,"c(-78.618835, 38.40823)"
Mira Patel Llc NA,23 Scenic Hwy,NA,Churchville,VA,24421,2400,AUGUSTA,205197,"c(-79.168472, 38.230701)"
Food Lion 438,2576 Stuarts Draft Hwy,Ste 106,Stuarts Draft,VA,24477,3190,AUGUSTA,205491,"c(-79.03875, 38.033268)"
Food Master,308 Ridge St,NA,Charlottesville,VA,22902,5554,CHARLOTTESVILLE,208585,"c(-78.485992, 38.028606)"
Food Lion 497,11 Orchard Rd,NA,Staunton,VA,24401,5533,STAUNTON,209038,"c(-79.072006, 38.117592)"
Dollar General 15947,24247 Constitution Hwy,NA,Unionville,VA,22567,2732,ORANGE,210841,"c(-77.951263, 38.267708)"
Food Lion 266,1751 S High St,NA,Harrisonburg,VA,22801,1553,HARRISONBURG,212415,"c(-78.900871, 38.432877)"
Kroger 343,850 Statler Blvd,NA,Staunton,VA,24401,4885,STAUNTON,212439,"c(-79.066505, 38.139065)"
KROGER STORE 228,245 Arch Ave,NA,Waynesboro,VA,22980,4658,WAYNESBORO,212475,"c(-78.887665, 38.066017)"
33 Quik Mart,12940 Jefferson Hwy,NA,Bumpass,VA,23024,3411,LOUISA,212543,"c(-77.83107, 37.883816)"
Kroger 334,1980 Rio Hill Ctr,NA,Charlottesville,VA,22901,1144,ALBEMARLE,213330,"c(-78.473373, 38.089115)"
Barracks Road Market,2613 Barracks Rd,NA,Charlottesville,VA,22901,2120,ALBEMARLE,215399,"c(-78.513245, 38.062737)"
Aldi 158,1900 Country Club Rd,NA,Harrisonburg,VA,22802,8840,HARRISONBURG,215726,"c(-78.839539, 38.43306)"
In & Out Market,2724 Irish Rd,NA,Esmont,VA,22937,1954,ALBEMARLE,216168,"c(-78.600746, 37.825447)"
Murphy Express 8741,34490 Twin Drive,NA,Locust Grove (Wilderness),VA,22508,NA,ORANGE,216311,"c(-77.767967, 38.370239)"
Dollar General 20317,49 Tyco St,NA,Harrisonburg,VA,22802,NA,HARRISONBURG,217595,"c(-78.855125, 38.461277)"
Goochland Supermarket,5260 River Rd W,NA,Goochland,VA,23063,2822,GOOCHLAND,218351,"c(-78.053757, 37.735668)"
Big Lots 5339,2715 W Main St,NA,Waynesboro,VA,22980,1617,WAYNESBORO,218472,"c(-78.927299, 38.081528)"
7-Eleven Inc F 10644A,416 S Main St,NA,Culpeper,VA,22701,3118,CULPEPER,219420,"c(-77.996933, 38.471218)"
Wayside Fastmart,2200 Jefferson Park Ave,NA,Charlottesville,VA,22903,3018,CHARLOTTESVILLE,219699,"c(-78.514915, 38.024925)"
High Up Gasoline Inc.,1011 N Main St,NA,Harrisonburg,VA,22802,4628,HARRISONBURG,219799,"c(-78.857239, 38.459587)"
Dollar General 18123,3259 Broad Street Rd,NA,Gum Spring,VA,23065,2246,GOOCHLAND,220301,"c(-77.898476, 37.776474)"
Deno's Food Mart,916 N Augusta St,NA,Staunton,VA,24401,3215,STAUNTON,220437,"c(-79.070885, 38.15794)"
B And R Market,800 Avon St,NA,Charlottesville,VA,22902,6114,CHARLOTTESVILLE,220995,"c(-78.479774, 38.023434)"
Roses 116,450 N Mason St,NA,Harrisonburg,VA,22802,4197,HARRISONBURG,221176,"c(-78.865158, 38.454231)"
Big Lots 1241,131 S Carlton St,NA,Harrisonburg,VA,22801,4326,HARRISONBURG,221693,"c(-78.858421, 38.442665)"
7-Eleven Store 34510A,1010 W Market St,NA,Harrisonburg,VA,22801,9001,HARRISONBURG,222330,"c(-78.885445, 38.452168)"
Sheetz 565,4201 Anderson Hwy,NA,Powhatan,VA,23139,5602,POWHATAN,222397,"c(-77.941483, 37.555294)"
7-eleven 23904D,380 N Mason St,NA,Harrisonburg,VA,22802,4146,HARRISONBURG,224778,"c(-78.865555, 38.452824)"
"Abarrotes La Victoria, Llc.",440 W Broad St,NA,Waynesboro,VA,22980,4506,WAYNESBORO,225090,"c(-78.888779, 38.069832)"
Charlottesville Latino Market,380 Greenbrier Dr,Ste D,Charlottesville,VA,22901,1655,ALBEMARLE,225620,"c(-78.485283, 38.070778)"
Aldi 55,841 Shenandoah Village Dr,NA,Waynesboro,VA,22980,NA,WAYNESBORO,226132,"c(-78.937241, 38.054516)"
Staunton Junction,163 Greenville Ave,NA,Staunton,VA,24401,4379,STAUNTON,226151,"c(-79.069984, 38.147797)"
Fishersville Corner Market,1829 Jefferson Hwy,NA,Fishersville,VA,22939,2238,AUGUSTA,226580,"c(-78.96685, 38.097031)"
Lidl 1500,750 Twentyninght Place Court,NA,Charlottesville,VA,22901,NA,ALBEMARLE,226820,"c(-78.479065, 38.078098)"
D'amores Market,4814 Broad Street Rd,NA,Louisa,VA,23093,2204,LOUISA,228289,"c(-77.998222, 37.844482)"
Sheetz 572,2870 Stuarts Draft Hwy,NA,Stuarts Draft,VA,24477,2780,AUGUSTA,228565,"c(-79.026611, 38.037491)"
Sheetz 588,216 East Main St,NA,Louisa,VA,23093,6502,LOUISA,229069,"c(-77.999748, 38.021976)"
Crozet Great Valu,5728 Three Notched Rd,NA,Crozet,VA,22932,3107,ALBEMARLE,229753,"c(-78.698532, 38.069263)"
Stop In Food Stores 64,1129 Richmond Rd,NA,Charlottesville,VA,22911,3514,ALBEMARLE,229946,"c(-78.457619, 38.034035)"
Dollar Tree 6338,195 Madison Rd,NA,Orange,VA,22960,1427,ORANGE,230417,"c(-78.112488, 38.248322)"
Stop In Food Stores 8065,301 E Broad St,NA,Waynesboro,VA,22980,5005,WAYNESBORO,231129,"c(-78.883911, 38.069164)"
Wegmans 127,100 Wegmans Way,NA,Charlottesville,VA,22902,6507,CHARLOTTESVILLE,232462,"c(-78.501923, 38.009186)"
7-eleven 39892A,1911 S High St,NA,Harrisonburg,VA,22801,8563,HARRISONBURG,234460,"c(-78.905121, 38.431805)"
Babylon,1435 S Main St,NA,Harrisonburg,VA,22801,2910,HARRISONBURG,234553,"c(-78.882416, 38.432911)"
Aswadi Enterprises Llc. Corner Exxon,233 Caroline St,NA,Orange,VA,22960,1530,ORANGE,235397,"c(-78.113045, 38.240124)"
7-eleven 34517b 34517B,211 N Main St,NA,Bridgewater,VA,22812,1339,ROCKINGHAM,235732,"c(-78.975143, 38.384186)"
Staunton Farmers' Market,101 W Johnson St,NA,Staunton,VA,24401,NA,STAUNTON,235858,"c(-79.074066, 38.148697)"
"Sysco Virginia, LLC 7",5081 S Valley Pike,NA,Harrisonburg,VA,22801,3932,HARRISONBURG,237007,"c(-78.92424, 38.380337)"
Al-Barakah ,2173 S Main St,NA,Harrisonburg,VA,22801,2683,HARRISONBURG,237251,"c(-78.89341, 38.422421)"
Mad River Store,710 Port Republic Rd,NA,Harrisonburg,VA,22801,3328,HARRISONBURG,237692,"c(-78.87439, 38.427216)"
Goose Creek Market Exxon,137 Lee Jackson Hwy,NA,Staunton,VA,24401,5503,STAUNTON,238267,"c(-79.066032, 38.123207)"
The Country Store,587 Mt Torrey Rd,NA,Lyndhurst,VA,22952,2600,AUGUSTA,238485,"c(-78.945351, 38.026421)"
George's Tavern Market,5281 River Rd W,NA,Goochland,VA,23063,2824,GOOCHLAND,239752,"c(-78.054565, 37.73534)"
Prospect Market And Deli,832 Cherry Ave,NA,Charlottesville,VA,22903,3457,CHARLOTTESVILLE,240066,"c(-78.494858, 38.028549)"
Express Grocery Stores. ,198 Zan Rd,NA,Charlottesville,VA,22901,2857,ALBEMARLE,240136,"c(-78.488266, 38.063454)"
7-Eleven 36748A,1911 Reservoir St,NA,Harrisonburg,VA,22801,8741,HARRISONBURG,240474,"c(-78.854897, 38.426731)"
Beaver Dam Market,1505 Richmond Rd,NA,Troy,VA,22974,3734,FLUVANNA,242530,"c(-78.297226, 37.984653)"
Foodmart,953 S High St,NA,Harrisonburg,VA,22801,1636,HARRISONBURG,242543,"c(-78.887115, 38.440022)"
Spotted Pig Holler U Pick,75 Green Lane Dr,NA,Kents Store,VA,23084,2240,FLUVANNA,243009,"c(-78.071808, 37.909122)"
340 Market & Deli,150 South East Side Hwy,NA,Elkton,VA,22827,1697,ROCKINGHAM,243251,"c(-78.620178, 38.40242)"
7-Eleven Store 34518J,4025 Quarles Court,NA,Harrisonburg,VA,22801,NA,HARRISONBURG,243556,"c(-78.828842, 38.407677)"
